[{"OBJECT_NAME":"SHIJIAN-6 02A (SJ-6 02A)","OBJECT_ID":"2006-046A","EPOCH":"2026-03-09T21:49:37.521984","MEAN_MOTION":15.15703349,"ECCENTRICITY":0.00046258,"INCLINATION":97.65,"RA_OF_ASC_NODE":109.2528,"ARG_OF_PERICENTER":113.0609,"MEAN_ANOMALY":247.1111,"EPHEMERIS_TYPE":0,"CLASSIFICATION_TYPE":"U","NORAD_CAT_ID":29505,"ELEMENT_SET_NO":999,"REV_AT_EPOCH":5722,"BSTAR":0.00028731371,"MEAN_MOTION_DOT":5.405e-5,"MEAN_MOTION_DDOT":0},{"OBJECT_NAME":"STARLINK-30474","OBJECT_ID":"2023-146G","EPOCH":"2026-03-09T22:22:25.161888","MEAN_MOTION":15.08097712,"ECCENTRICITY":0.00016808,"INCLINATION":42.9999,"RA_OF_ASC_NODE":311.9544,"ARG_OF_PERICENTER":232.2311,"MEAN_ANOMALY":127.8382,"EPHEMERIS_TYPE":0,"CLASSIFICATION_TYPE":"U","NORAD_CAT_ID":57897,"ELEMENT_SET_NO":999,"REV_AT_EPOCH":13710,"BSTAR":0.033869438,"MEAN_MOTION_DOT":0.00562719,"MEAN_MOTION_DDOT":0}]
